{
  "type": "FeatureCollection",
  "features": [
    {
      "type": "Feature",
      "properties": {
        "norad_id": 15362,
        "name": "NOVA 3",
        "group": "nnss",
        "lat": -69.92012008953769,
        "lon": 80.83376693733442,
        "alt_km": 1165.6530200765637,
        "timestamp": "2025-12-09T16:56:36.843242+00:00",
        "meta_object_name": "NOVA 3",
        "meta_object_id": "1984-110A",
        "meta_epoch": "2025-12-09T08:33:53.307936",
        "meta_mean_motion": 13.23044007,
        "meta_eccentricity": 0.0030752,
        "meta_inclination": 90.1223,
        "meta_ra_of_asc_node": 80.4949,
        "meta_arg_of_pericenter": 341.5162,
        "meta_mean_anomaly": 87.0197,
        "meta_ephemeris_type": 0,
        "meta_classification_type": "U",
        "meta_norad_cat_id": 15362,
        "meta_element_set_no": 999,
        "meta_rev_at_epoch": 98654,
        "meta_bstar": 0.00021115,
        "meta_mean_motion_dot": 9.7e-07,
        "meta_mean_motion_ddot": 0,
        "tle_line1": "1 15362U 84110A   25343.35686699  .00000097  00000+0  21115-3 0  9998",
        "tle_line2": "2 15362  90.1223  80.4949 0030752 341.5162  87.0197 13.23044007986547"
      },
      "geometry": {
        "type": "Point",
        "coordinates": [
          80.83376693733442,
          -69.92012008953769
        ]
      }
    },
    {
      "type": "Feature",
      "properties": {
        "norad_id": 15935,
        "name": "OSCAR 30",
        "group": "nnss",
        "lat": -50.40618376800716,
        "lon": -80.40206058866451,
        "alt_km": 1224.3304806678252,
        "timestamp": "2025-12-09T16:56:36.843253+00:00",
        "meta_object_name": "OSCAR 30",
        "meta_object_id": "1985-066A",
        "meta_epoch": "2025-12-09T08:54:51.030144",
        "meta_mean_motion": 13.36077553,
        "meta_eccentricity": 0.0169409,
        "meta_inclination": 90.1649,
        "meta_ra_of_asc_node": 99.792,
        "meta_arg_of_pericenter": 93.3036,
        "meta_mean_anomaly": 327.4735,
        "meta_ephemeris_type": 0,
        "meta_classification_type": "U",
        "meta_norad_cat_id": 15935,
        "meta_element_set_no": 999,
        "meta_rev_at_epoch": 96408,
        "meta_bstar": 0.00028645,
        "meta_mean_motion_dot": 1.7e-06,
        "meta_mean_motion_ddot": 0,
        "tle_line1": "1 15935U 85066A   25343.37142396  .00000170  00000+0  28645-3 0  9995",
        "tle_line2": "2 15935  90.1649  99.7920 0169409  93.3036 327.4735 13.36077553964081"
      },
      "geometry": {
        "type": "Point",
        "coordinates": [
          -80.40206058866451,
          -50.40618376800716
        ]
      }
    },
    {
      "type": "Feature",
      "properties": {
        "norad_id": 15936,
        "name": "OSCAR 24",
        "group": "nnss",
        "lat": -55.031803597290875,
        "lon": 92.50756392680987,
        "alt_km": 1245.864880842857,
        "timestamp": "2025-12-09T16:56:36.843263+00:00",
        "meta_object_name": "OSCAR 24",
        "meta_object_id": "1985-066B",
        "meta_epoch": "2025-12-09T08:32:47.059008",
        "meta_mean_motion": 13.35935107,
        "meta_eccentricity": 0.0170471,
        "meta_inclination": 90.1788,
        "meta_ra_of_asc_node": 92.2456,
        "meta_arg_of_pericenter": 99.7827,
        "meta_mean_anomaly": 324.407,
        "meta_ephemeris_type": 0,
        "meta_classification_type": "U",
        "meta_norad_cat_id": 15936,
        "meta_element_set_no": 999,
        "meta_rev_at_epoch": 96598,
        "meta_bstar": 0.00025473,
        "meta_mean_motion_dot": 1.52e-06,
        "meta_mean_motion_ddot": 0,
        "tle_line1": "1 15936U 85066B   25343.35610022  .00000152  00000+0  25473-3 0  9996",
        "tle_line2": "2 15936  90.1788  92.2456 0170471  99.7827 324.4070 13.35935107965983"
      },
      "geometry": {
        "type": "Point",
        "coordinates": [
          92.50756392680987,
          -55.031803597290875
        ]
      }
    },
    {
      "type": "Feature",
      "properties": {
        "norad_id": 17070,
        "name": "POLAR BEAR",
        "group": "nnss",
        "lat": 72.74325965255464,
        "lon": -174.87304071265322,
        "alt_km": 956.7105693945323,
        "timestamp": "2025-12-09T16:56:36.843274+00:00",
        "meta_object_name": "POLAR BEAR",
        "meta_object_id": "1986-088A",
        "meta_epoch": "2025-12-09T11:40:55.884288",
        "meta_mean_motion": 13.75249895,
        "meta_eccentricity": 0.0040773,
        "meta_inclination": 89.6176,
        "meta_ra_of_asc_node": 183.9039,
        "meta_arg_of_pericenter": 128.6786,
        "meta_mean_anomaly": 299.7884,
        "meta_ephemeris_type": 0,
        "meta_classification_type": "U",
        "meta_norad_cat_id": 17070,
        "meta_element_set_no": 999,
        "meta_rev_at_epoch": 95934,
        "meta_bstar": 0.00016163,
        "meta_mean_motion_dot": 1.67e-06,
        "meta_mean_motion_ddot": 0,
        "tle_line1": "1 17070U 86088A   25343.48675792  .00000167  00000+0  16163-3 0  9993",
        "tle_line2": "2 17070  89.6176 183.9039 0040773 128.6786 299.7884 13.75249895959346"
      },
      "geometry": {
        "type": "Point",
        "coordinates": [
          -174.87304071265322,
          72.74325965255464
        ]
      }
    },
    {
      "type": "Feature",
      "properties": {
        "norad_id": 18361,
        "name": "OSCAR 27",
        "group": "nnss",
        "lat": -57.41637457772685,
        "lon": 79.7447197558788,
        "alt_km": 1071.3579975940165,
        "timestamp": "2025-12-09T16:56:36.843284+00:00",
        "meta_object_name": "OSCAR 27",
        "meta_object_id": "1987-080A",
        "meta_epoch": "2025-12-09T08:18:05.430816",
        "meta_mean_motion": 13.44905747,
        "meta_eccentricity": 0.0102671,
        "meta_inclination": 90.3742,
        "meta_ra_of_asc_node": 79.1454,
        "meta_arg_of_pericenter": 233.6303,
        "meta_mean_anomaly": 125.5339,
        "meta_ephemeris_type": 0,
        "meta_classification_type": "U",
        "meta_norad_cat_id": 18361,
        "meta_element_set_no": 999,
        "meta_rev_at_epoch": 87511,
        "meta_bstar": 0.00030933,
        "meta_mean_motion_dot": 1.95e-06,
        "meta_mean_motion_ddot": 0,
        "tle_line1": "1 18361U 87080A   25343.34589619  .00000195  00000+0  30933-3 0  9999",
        "tle_line2": "2 18361  90.3742  79.1454 0102671 233.6303 125.5339 13.44905747875117"
      },
      "geometry": {
        "type": "Point",
        "coordinates": [
          79.7447197558788,
          -57.41637457772685
        ]
      }
    },
    {
      "type": "Feature",
      "properties": {
        "norad_id": 18362,
        "name": "OSCAR 29",
        "group": "nnss",
        "lat": -40.29070494844063,
        "lon": 79.93595380841862,
        "alt_km": 1064.4294943108152,
        "timestamp": "2025-12-09T16:56:36.843294+00:00",
        "meta_object_name": "OSCAR 29",
        "meta_object_id": "1987-080B",
        "meta_epoch": "2025-12-09T06:41:55.136832",
        "meta_mean_motion": 13.44447552,
        "meta_eccentricity": 0.0103778,
        "meta_inclination": 90.3754,
        "meta_ra_of_asc_node": 79.6015,
        "meta_arg_of_pericenter": 257.2227,
        "meta_mean_anomaly": 156.6742,
        "meta_ephemeris_type": 0,
        "meta_classification_type": "U",
        "meta_norad_cat_id": 18362,
        "meta_element_set_no": 999,
        "meta_rev_at_epoch": 87463,
        "meta_bstar": 0.00028125,
        "meta_mean_motion_dot": 1.76e-06,
        "meta_mean_motion_ddot": 0,
        "tle_line1": "1 18362U 87080B   25343.27911038  .00000176  00000+0  28125-3 0  9995",
        "tle_line2": "2 18362  90.3754  79.6015 0103778 257.2227 156.6742 13.44447552874639"
      },
      "geometry": {
        "type": "Point",
        "coordinates": [
          79.93595380841862,
          -40.29070494844063
        ]
      }
    },
    {
      "type": "Feature",
      "properties": {
        "norad_id": 19070,
        "name": "OSCAR 23",
        "group": "nnss",
        "lat": -82.01796433714232,
        "lon": 18.593411946105547,
        "alt_km": 1158.9720601958588,
        "timestamp": "2025-12-09T16:56:36.843304+00:00",
        "meta_object_name": "OSCAR 23",
        "meta_object_id": "1988-033A",
        "meta_epoch": "2025-12-09T08:22:52.576032",
        "meta_mean_motion": 13.27786458,
        "meta_eccentricity": 0.0189246,
        "meta_inclination": 90.3215,
        "meta_ra_of_asc_node": 16.2875,
        "meta_arg_of_pericenter": 189.3566,
        "meta_mean_anomaly": 182.1255,
        "meta_ephemeris_type": 0,
        "meta_classification_type": "U",
        "meta_norad_cat_id": 19070,
        "meta_element_set_no": 999,
        "meta_rev_at_epoch": 82208,
        "meta_bstar": 0.00020383,
        "meta_mean_motion_dot": 1.1e-06,
        "meta_mean_motion_ddot": 0,
        "tle_line1": "1 19070U 88033A   25343.34921963  .00000110  00000+0  20383-3 0  9993",
        "tle_line2": "2 19070  90.3215  16.2875 0189246 189.3566 182.1255 13.27786458822081"
      },
      "geometry": {
        "type": "Point",
        "coordinates": [
          18.593411946105547,
          -82.01796433714232
        ]
      }
    }
  ]
}